0 COSMOS 1823 DEB
1 18753U 87020AE  13282.53639977  .00000100  00000-0  83051-3 0  5308
2 18753 073.4494 317.9237 0019473 151.7690 016.8296 12.44939028172343
0 COSMOS 1823 DEB
1 18753U 87020AE  13287.51497990  .00000084  00000-0  71591-3 0  5327
2 18753 073.4485 311.1376 0019125 144.4142 010.0064 12.44940186172962
0 COSMOS 1823 DEB
1 18753U 87020AE  13289.52385425  .00000085  00000-0  72421-3 0  5334
2 18753 073.4484 308.3991 0018996 141.3141 013.5900 12.44941061173211
0 COSMOS 1823 DEB
1 18753U 87020AE  13292.15562196  .00000097  00000-0  80795-3 0  5346
2 18753 073.4486 304.8114 0018912 137.2254 288.9599 12.44941669173540
0 COSMOS 1823 DEB
1 18753U 87020AE  13294.16538350  .00000105  00000-0  86431-3 0  5358
2 18753 073.4487 302.0717 0018823 134.0021 296.6520 12.44942025173792
0 COSMOS 1823 DEB
1 18753U 87020AE  13296.17700331  .00000121  00000-0  97482-3 0  5368
2 18753 073.4486 299.3297 0018754 130.7069 312.7450 12.44942488174044
